{"type":"FeatureCollection","source":"https://www.openstreetmap.org/copyright","queried_at":"2026-09-30","license":"ODbL","features":[{"type":"Feature","properties":{"osm_way":4603441,"ref":"A1"},"geometry":{"type":"LineString","coordinates":[[33.0034352,34.6881004],[33.0072231,34.6888608],[33.0076459,34.6889916]]}},{"type":"Feature","properties":{"osm_way":24052061,"ref":"A1","highway":"motorway"},"geometry":{"type":"LineString","coordinates":[[33.0076459,34.6889916],[33.0081913,34.6892102],[33.0087083,34.6894688],[33.0091606,34.6897389],[33.0094667,34.6899569],[33.009864,34.6903062],[33.0137535,34.69426]]}},{"type":"Feature","properties":{"osm_way":24052068,"ref":"A1"},"geometry":{"type":"LineString","coordinates":[[33.0076773,34.688904],[33.00724,34.68879],[33.0034648,34.6880125]]}},{"type":"Feature","properties":{"osm_way":24249350,"ref":"A6"},"geometry":{"type":"LineString","coordinates":[[32.9205279,34.6886263],[32.917962,34.6876616],[32.9169979,34.6873186],[32.9162281,34.6870423]]}},{"type":"Feature","properties":{"osm_way":24249358,"ref":"A6"},"geometry":{"type":"LineString","coordinates":[[32.9209949,34.6887936],[32.9205279,34.6886263]]}},{"type":"Feature","properties":{"osm_way":24249378,"ref":"A6"},"geometry":{"type":"LineString","coordinates":[[32.9205525,34.6887273],[32.9210225,34.6889033]]}},{"type":"Feature","properties":{"osm_way":30951437,"ref":"A6"},"geometry":{"type":"LineString","coordinates":[[32.9210225,34.6889033],[32.9229299,34.6896656],[32.9233076,34.6897882]]}},{"type":"Feature","properties":{"osm_way":31023052,"ref":"A6"},"geometry":{"type":"LineString","coordinates":[[32.9094276,34.6850693],[32.9134829,34.6862744]]}},{"type":"Feature","properties":{"osm_way":31023055,"ref":"A6"},"geometry":{"type":"LineString","coordinates":[[32.9135552,34.6861714],[32.9094462,34.6849328]]}},{"type":"Feature","properties":{"osm_way":31023057,"ref":"A6"},"geometry":{"type":"LineString","coordinates":[[32.9094462,34.6849328],[32.9086911,34.684703],[32.9042847,34.6834693],[32.9006869,34.6824457]]}},{"type":"Feature","properties":{"osm_way":31023098,"ref":"A6"},"geometry":{"type":"LineString","coordinates":[[32.9134829,34.6862744],[32.9160484,34.6871254]]}},{"type":"Feature","properties":{"osm_way":55609567,"ref":"A6"},"geometry":{"type":"LineString","coordinates":[[32.858051,34.7015344],[32.8581802,34.701433],[32.8588194,34.7008589],[32.8590358,34.7006616],[32.8594866,34.7000772],[32.8600527,34.6992165],[32.8604868,34.6985163],[32.860805,34.6979956],[32.8615758,34.6967254],[32.8622625,34.6956096],[32.8626585,34.6951017],[32.8630169,34.6946997],[32.8634484,34.6942945],[32.8638897,34.6939625],[32.8644558,34.6935932],[32.8651085,34.6932283],[32.8666068,34.6925663],[32.8681805,34.6919211],[32.868862,34.6915961],[32.8692677,34.6913721],[32.8697892,34.6910703],[32.8702959,34.6907503],[32.8710956,34.6900859],[32.8725955,34.688815]]}},{"type":"Feature","properties":{"osm_way":55609568,"ref":"A6"},"geometry":{"type":"LineString","coordinates":[[32.8725348,34.6887061],[32.8710995,34.6898719],[32.8701877,34.6906252],[32.8697009,34.6909569],[32.8692235,34.6912541],[32.8688237,34.6914569],[32.8681143,34.6917895],[32.8665246,34.6925137],[32.8650554,34.6931251],[32.8643801,34.6934832],[32.8637912,34.6938645],[32.8633672,34.6942005],[32.8629204,34.6946042],[32.8625382,34.6950445],[32.8621496,34.695543],[32.8614412,34.6966956],[32.8608508,34.6976273],[32.8606533,34.6980148],[32.8604226,34.698404],[32.8599606,34.6991727],[32.8593617,34.6999889],[32.8588639,34.7005312],[32.8586388,34.7007561],[32.8580099,34.7012816],[32.8578832,34.7013822]]}},{"type":"Feature","properties":{"osm_way":55609577,"ref":"A6"},"geometry":{"type":"LineString","coordinates":[[32.8751121,34.6868047],[32.8759618,34.6862246],[32.8780931,34.684719],[32.8790006,34.6841945],[32.8799419,34.6837]]}},{"type":"Feature","properties":{"osm_way":55609578,"ref":"A6"},"geometry":{"type":"LineString","coordinates":[[32.8725955,34.688815],[32.8737931,34.6878621],[32.8751121,34.6868047]]}},{"type":"Feature","properties":{"osm_way":55609579,"ref":"A6"},"geometry":{"type":"LineString","coordinates":[[32.8750293,34.6867094],[32.8736993,34.6877668],[32.8725348,34.6887061]]}},{"type":"Feature","properties":{"osm_way":55610169,"ref":"A1"},"geometry":{"type":"LineString","coordinates":[[33.1097073,34.7080521],[33.1104477,34.7081866],[33.1143629,34.7089102],[33.1179016,34.7095287],[33.1200864,34.7099339],[33.1211386,34.7101535],[33.1225424,34.7104909],[33.1238502,34.7108798],[33.1250262,34.7112715],[33.1256108,34.7114965]]}},{"type":"Feature","properties":{"osm_way":55610170,"ref":"A1","highway":"motorway"},"geometry":{"type":"LineString","coordinates":[[33.0987839,34.7061645],[33.0973852,34.706131],[33.0961476,34.7061455]]}},{"type":"Feature","properties":{"osm_way":83391458,"ref":"A1"},"geometry":{"type":"LineString","coordinates":[[33.1983072,34.7220806],[33.2006042,34.7220556],[33.2013857,34.7220927],[33.2019818,34.7221622],[33.2025637,34.7222703]]}},{"type":"Feature","properties":{"osm_way":83391460,"ref":"A1"},"geometry":{"type":"LineString","coordinates":[[33.1976911,34.721943],[33.1965143,34.7219501],[33.1958488,34.7219422],[33.1951885,34.7218891],[33.1947127,34.7218302],[33.1941185,34.721739],[33.1932684,34.7215533],[33.1893319,34.7206417],[33.1830486,34.7192001],[33.1795468,34.7184058],[33.1763944,34.7176747]]}},{"type":"Feature","properties":{"osm_way":83391461,"ref":"A1"},"geometry":{"type":"LineString","coordinates":[[33.1976909,34.7220835],[33.1983072,34.7220806]]}},{"type":"Feature","properties":{"osm_way":83391464,"ref":"A1"},"geometry":{"type":"LineString","coordinates":[[33.1982988,34.7219431],[33.1976911,34.721943]]}},{"type":"Feature","properties":{"osm_way":86353283,"ref":"A6"},"geometry":{"type":"LineString","coordinates":[[32.882856,34.6823866],[32.8812759,34.6830036],[32.8798683,34.6836151]]}},{"type":"Feature","properties":{"osm_way":86353284,"ref":"A6"},"geometry":{"type":"LineString","coordinates":[[32.8829176,34.6824853],[32.884992,34.6818718]]}},{"type":"Feature","properties":{"osm_way":86353286,"ref":"A6"},"geometry":{"type":"LineString","coordinates":[[32.8798683,34.6836151],[32.8789248,34.6840949],[32.8779961,34.6846157],[32.8758765,34.6860382],[32.8750293,34.6867094]]}},{"type":"Feature","properties":{"osm_way":86353289,"ref":"A6"},"geometry":{"type":"LineString","coordinates":[[32.8799419,34.6837],[32.8813256,34.6831086],[32.8820731,34.6827979],[32.8829176,34.6824853]]}},{"type":"Feature","properties":{"osm_way":149150885,"ref":"A6"},"geometry":{"type":"LineString","coordinates":[[32.9999555,34.687385],[32.9989455,34.6872796]]}},{"type":"Feature","properties":{"osm_way":149763646,"ref":"A1","highway":"motorway"},"geometry":{"type":"LineString","coordinates":[[33.0137535,34.69426],[33.017653,34.6982585]]}},{"type":"Feature","properties":{"osm_way":149763647,"ref":"A1"},"geometry":{"type":"LineString","coordinates":[[33.1763675,34.7177696],[33.1794881,34.718511],[33.1830035,34.7193202],[33.1850727,34.7197917],[33.1890286,34.7207155],[33.1930941,34.721638],[33.1940892,34.7218503],[33.1946319,34.7219459],[33.1951522,34.7220143],[33.1958406,34.7220681],[33.1965271,34.7220803],[33.1976909,34.7220835]]}},{"type":"Feature","properties":{"osm_way":149763648,"ref":"A1"},"geometry":{"type":"LineString","coordinates":[[33.1442515,34.7175799],[33.1437076,34.7174366],[33.1411629,34.7167353],[33.1382596,34.7159103],[33.135628,34.7151022],[33.1326665,34.7141164],[33.1301757,34.7131976],[33.1290389,34.7127374],[33.1276759,34.7121866]]}},{"type":"Feature","properties":{"osm_way":181645228,"ref":"A1","highway":"motorway"},"geometry":{"type":"LineString","coordinates":[[33.0175999,34.6980313],[33.0138311,34.6942049]]}},{"type":"Feature","properties":{"osm_way":241833022,"ref":"A1","highway":"motorway"},"geometry":{"type":"LineString","coordinates":[[33.0138311,34.6942049],[33.0099544,34.6902537],[33.0095472,34.6898906],[33.0092227,34.6896677],[33.0087696,34.689384],[33.0082455,34.6891261],[33.0076773,34.688904]]}},{"type":"Feature","properties":{"osm_way":344099461,"ref":"A6"},"geometry":{"type":"LineString","coordinates":[[32.8927924,34.6811076],[32.893227,34.681124],[32.8941445,34.6811958],[32.8946553,34.6812429],[32.8962269,34.681482],[32.8974158,34.6816976],[32.8981592,34.681884],[32.8988457,34.6820631],[32.9006411,34.6825497]]}},{"type":"Feature","properties":{"osm_way":344099463,"ref":"A6"},"geometry":{"type":"LineString","coordinates":[[32.8908542,34.680986],[32.8907566,34.6809859]]}},{"type":"Feature","properties":{"osm_way":344099466,"ref":"A6"},"geometry":{"type":"LineString","coordinates":[[32.884992,34.6818718],[32.8858876,34.6816784],[32.8868248,34.6814927],[32.8878694,34.6813325],[32.8883163,34.6812776]]}},{"type":"Feature","properties":{"osm_way":344099470,"ref":"A6"},"geometry":{"type":"LineString","coordinates":[[32.8867763,34.6813891],[32.8858531,34.6815726],[32.8849478,34.681774],[32.882856,34.6823866]]}},{"type":"Feature","properties":{"osm_way":344106356,"ref":"A6"},"geometry":{"type":"LineString","coordinates":[[33.0014059,34.6876216],[32.9999555,34.687385]]}},{"type":"Feature","properties":{"osm_way":344106357,"ref":"A6"},"geometry":{"type":"LineString","coordinates":[[32.9006869,34.6824457],[32.8999562,34.6822488],[32.8974475,34.6815956],[32.8962415,34.6813608],[32.8946628,34.6811444],[32.8941564,34.6810917],[32.8932437,34.6810237],[32.8928019,34.6810014]]}},{"type":"Feature","properties":{"osm_way":344106358,"ref":"A6"},"geometry":{"type":"LineString","coordinates":[[32.91611,34.6870004],[32.9135552,34.6861714]]}},{"type":"Feature","properties":{"osm_way":344106359,"ref":"A6"},"geometry":{"type":"LineString","coordinates":[[32.9989251,34.6873802],[33.0002097,34.6875272]]}},{"type":"Feature","properties":{"osm_way":344106360,"ref":"A6"},"geometry":{"type":"LineString","coordinates":[[32.9161667,34.6871668],[32.9179013,34.6877555],[32.9205525,34.6887273]]}},{"type":"Feature","properties":{"osm_way":344106361,"ref":"A6"},"geometry":{"type":"LineString","coordinates":[[32.9243016,34.6899556],[32.9229637,34.6895627],[32.9209949,34.6887936]]}},{"type":"Feature","properties":{"osm_way":344106362,"ref":"A6"},"geometry":{"type":"LineString","coordinates":[[32.9006411,34.6825497],[32.9042542,34.6835707],[32.907253,34.6844163],[32.9094276,34.6850693]]}},{"type":"Feature","properties":{"osm_way":344106363,"ref":"A6"},"geometry":{"type":"LineString","coordinates":[[32.9233076,34.6897882],[32.9237282,34.6899102],[32.9243491,34.6900711],[32.9249144,34.6901879],[32.9255806,34.6902696],[32.9263201,34.6902923],[32.9283036,34.6902357]]}},{"type":"Feature","properties":{"osm_way":344106364,"ref":"A6"},"geometry":{"type":"LineString","coordinates":[[32.9899284,34.6875113],[32.9885752,34.6877501],[32.9873182,34.6880151],[32.9860319,34.6883579],[32.9850094,34.6886497],[32.9838582,34.6890322],[32.9808054,34.6901331],[32.9796696,34.6905493],[32.9790339,34.6907757],[32.9755853,34.691994],[32.9719902,34.6933081],[32.9682728,34.6946426],[32.9675301,34.6948995],[32.9662738,34.6953528]]}},{"type":"Feature","properties":{"osm_way":543743968,"ref":"A6"},"geometry":{"type":"LineString","coordinates":[[32.9335344,34.6899744],[32.9301962,34.6900771],[32.9284164,34.6901132]]}},{"type":"Feature","properties":{"osm_way":543743969,"ref":"A6"},"geometry":{"type":"LineString","coordinates":[[32.9451626,34.6926499],[32.9453122,34.6927647]]}},{"type":"Feature","properties":{"osm_way":543743970,"ref":"A6"},"geometry":{"type":"LineString","coordinates":[[32.9455021,34.6927395],[32.9454226,34.6926759]]}},{"type":"Feature","properties":{"osm_way":543743971,"ref":"A6"},"geometry":{"type":"LineString","coordinates":[[32.9455004,34.6929166],[32.9464073,34.6936098]]}},{"type":"Feature","properties":{"osm_way":543788305,"ref":"A6"},"geometry":{"type":"LineString","coordinates":[[32.9464073,34.6936098],[32.94708,34.6940754],[32.9480674,34.6946605],[32.9489824,34.6951243],[32.9501783,34.6956766],[32.9511292,34.696017],[32.9520674,34.6963026],[32.952686,34.6964759],[32.9532523,34.6966125]]}},{"type":"Feature","properties":{"osm_way":543789414,"ref":"A6"},"geometry":{"type":"LineString","coordinates":[[32.9537128,34.6967216],[32.9538185,34.696749],[32.954239,34.6968273]]}},{"type":"Feature","properties":{"osm_way":543789415,"ref":"A6"},"geometry":{"type":"LineString","coordinates":[[32.9663298,34.6954579],[32.9671402,34.6951612],[32.9683484,34.6947369],[32.971618,34.6935676],[32.9790865,34.6908892],[32.983663,34.68924],[32.9850655,34.6887563],[32.9860351,34.6884626],[32.9873261,34.6881287],[32.9885374,34.6878691],[32.9898618,34.687632]]}},{"type":"Feature","properties":{"osm_way":543789416,"ref":"A6"},"geometry":{"type":"LineString","coordinates":[[32.9542573,34.6967322],[32.9538488,34.6966581],[32.9537458,34.6966352]]}},{"type":"Feature","properties":{"osm_way":543789417,"ref":"A6"},"geometry":{"type":"LineString","coordinates":[[32.9533066,34.6965336],[32.9527644,34.6964091],[32.9521424,34.6962458],[32.951172,34.6959159],[32.9502277,34.6955665],[32.9497547,34.6953568],[32.9488151,34.6949243],[32.9481973,34.6945895],[32.9472432,34.6940185],[32.94665,34.693622],[32.946386,34.6934312],[32.9456046,34.6928225]]}},{"type":"Feature","properties":{"osm_way":544798687,"ref":"A1"},"geometry":{"type":"LineString","coordinates":[[33.1276158,34.7122902],[33.1286796,34.7127112],[33.130124,34.7132943]]}},{"type":"Feature","properties":{"osm_way":544798688,"ref":"A1"},"geometry":{"type":"LineString","coordinates":[[33.130124,34.7132943],[33.1326187,34.7142187],[33.1355776,34.7152066],[33.1382001,34.7160119],[33.1411138,34.7168323],[33.1436641,34.7175356],[33.1441792,34.7176731]]}},{"type":"Feature","properties":{"osm_way":544799342,"ref":"A6"},"geometry":{"type":"LineString","coordinates":[[33.0002097,34.6875272],[33.0013551,34.6877065]]}},{"type":"Feature","properties":{"osm_way":544805322,"ref":"A1"},"geometry":{"type":"LineString","coordinates":[[33.1605901,34.7162367],[33.1617067,34.7160626],[33.1632729,34.715902],[33.1635179,34.7158849]]}},{"type":"Feature","properties":{"osm_way":979980906,"ref":"A6"},"geometry":{"type":"LineString","coordinates":[[32.8577849,34.7014499],[32.857468,34.7016843],[32.8570234,34.7019731],[32.8565369,34.7022379],[32.8557265,34.7026354],[32.8550545,34.702873],[32.8545369,34.7030306],[32.8537851,34.7032133],[32.8530783,34.7033198],[32.8523532,34.7034016],[32.851497,34.7034165],[32.8508757,34.7034038],[32.850002,34.7033045],[32.8486982,34.7029855],[32.8477093,34.7026409]]}},{"type":"Feature","properties":{"osm_way":979980907,"ref":"A6"},"geometry":{"type":"LineString","coordinates":[[32.8578832,34.7013822],[32.8577849,34.7014499]]}},{"type":"Feature","properties":{"osm_way":979980908,"ref":"A6"},"geometry":{"type":"LineString","coordinates":[[32.8475632,34.7029779],[32.8486152,34.7033506],[32.8496203,34.7036194],[32.8505633,34.7037278],[32.8515251,34.7037708],[32.8524403,34.7037383],[32.8531451,34.7036558],[32.8538845,34.7035266],[32.8546388,34.7033357],[32.8551866,34.7031539],[32.8557884,34.7029283],[32.8566872,34.7024662],[32.8571883,34.7021584],[32.8576399,34.7018571],[32.8579585,34.701607]]}},{"type":"Feature","properties":{"osm_way":979980909,"ref":"A6"},"geometry":{"type":"LineString","coordinates":[[32.8579585,34.701607],[32.858051,34.7015344]]}},{"type":"Feature","properties":{"osm_way":1061288834,"ref":"A1","highway":"motorway"},"geometry":{"type":"LineString","coordinates":[[33.0953654,34.7062928],[33.0961381,34.706261],[33.0973826,34.7062399],[33.0987854,34.7062724]]}},{"type":"Feature","properties":{"osm_way":1069689881,"ref":"A1"},"geometry":{"type":"LineString","coordinates":[[33.1635092,34.7157932],[33.1623919,34.7158785],[33.1616574,34.7159573]]}},{"type":"Feature","properties":{"osm_way":1069689884,"ref":"A1"},"geometry":{"type":"LineString","coordinates":[[33.2025984,34.7221696],[33.2019963,34.722056],[33.2014034,34.7219802],[33.2006512,34.7219254],[33.1982988,34.7219431]]}},{"type":"Feature","properties":{"osm_way":1174722245,"ref":"A1","highway":"motorway"},"geometry":{"type":"LineString","coordinates":[[33.0987854,34.7062724],[33.0995372,34.7063146],[33.1008023,34.7064548],[33.1021422,34.7066695],[33.1035866,34.7069215],[33.1070125,34.707562],[33.1095989,34.7080321]]}},{"type":"Feature","properties":{"osm_way":1174722246,"ref":"A1"},"geometry":{"type":"LineString","coordinates":[[33.1095989,34.7080321],[33.1097073,34.7080521]]}},{"type":"Feature","properties":{"osm_way":1174722247,"ref":"A1","highway":"motorway"},"geometry":{"type":"LineString","coordinates":[[33.1096502,34.7079098],[33.108743,34.7077619],[33.1067795,34.7073897],[33.1036118,34.7068208],[33.1021712,34.7065674],[33.1008469,34.7063555],[33.099551,34.7062154],[33.0987839,34.7061645]]}},{"type":"Feature","properties":{"osm_way":1174722248,"ref":"A1"},"geometry":{"type":"LineString","coordinates":[[33.1097569,34.7079403],[33.1096502,34.7079098]]}},{"type":"Feature","properties":{"osm_way":1174728426,"ref":"A1"},"geometry":{"type":"LineString","coordinates":[[33.1256108,34.7114965],[33.127504,34.7122459]]}},{"type":"Feature","properties":{"osm_way":1174728427,"ref":"A1"},"geometry":{"type":"LineString","coordinates":[[33.127504,34.7122459],[33.1276158,34.7122902]]}},{"type":"Feature","properties":{"osm_way":1174728428,"ref":"A1"},"geometry":{"type":"LineString","coordinates":[[33.1275673,34.7121399],[33.1261564,34.7115719],[33.1257008,34.7114004],[33.1250855,34.7111711],[33.123908,34.7107809],[33.1225911,34.7103906],[33.121199,34.7100444],[33.12011,34.7098195],[33.1179374,34.7094315],[33.1143835,34.7087921],[33.1107625,34.7081151],[33.1097569,34.7079403]]}},{"type":"Feature","properties":{"osm_way":1174728429,"ref":"A1"},"geometry":{"type":"LineString","coordinates":[[33.1276759,34.7121866],[33.1275673,34.7121399]]}},{"type":"Feature","properties":{"osm_way":1189574459,"ref":"A1"},"geometry":{"type":"LineString","coordinates":[[33.1616574,34.7159573],[33.1612605,34.7160118],[33.1603482,34.7161603],[33.1597798,34.7162775],[33.1587323,34.7165138],[33.1577786,34.7167797],[33.1547833,34.7176267],[33.154051,34.7178017],[33.1531781,34.7179801],[33.1523287,34.7181044],[33.151541,34.7181936],[33.1505234,34.7182619],[33.1493504,34.7182829],[33.1482562,34.7182339],[33.1472024,34.7181464],[33.1468621,34.7181011]]}},{"type":"Feature","properties":{"osm_way":1189574460,"ref":"A1"},"geometry":{"type":"LineString","coordinates":[[33.1468621,34.7181011],[33.1467753,34.7180895]]}},{"type":"Feature","properties":{"osm_way":1189574461,"ref":"A1"},"geometry":{"type":"LineString","coordinates":[[33.1468407,34.718208],[33.1471662,34.7182522],[33.1482256,34.7183481],[33.1493374,34.7184022],[33.1505168,34.7183828],[33.1509781,34.7183522],[33.1515492,34.7183092],[33.1523434,34.7182189],[33.1531916,34.7180911],[33.1540787,34.7179147],[33.1548255,34.7177384],[33.1565236,34.7172634],[33.1578213,34.7168828],[33.1587743,34.7166273],[33.1598138,34.7163895],[33.1603711,34.7162828],[33.1605901,34.7162367]]}},{"type":"Feature","properties":{"osm_way":1189574462,"ref":"A1"},"geometry":{"type":"LineString","coordinates":[[33.146754,34.7181962],[33.1468407,34.718208]]}},{"type":"Feature","properties":{"osm_way":1191188829,"ref":"A1"},"geometry":{"type":"LineString","coordinates":[[33.1635179,34.7158849],[33.1636408,34.7158785]]}},{"type":"Feature","properties":{"osm_way":1191188830,"ref":"A1"},"geometry":{"type":"LineString","coordinates":[[33.1648555,34.7157441],[33.1636329,34.7157877]]}},{"type":"Feature","properties":{"osm_way":1191188831,"ref":"A1"},"geometry":{"type":"LineString","coordinates":[[33.1636329,34.7157877],[33.1635092,34.7157932]]}},{"type":"Feature","properties":{"osm_way":1194283595,"ref":"A1","highway":"motorway"},"geometry":{"type":"LineString","coordinates":[[33.0953484,34.706171],[33.0951192,34.7061761]]}},{"type":"Feature","properties":{"osm_way":1194283597,"ref":"A1","highway":"motorway"},"geometry":{"type":"LineString","coordinates":[[33.0951307,34.7063003],[33.0951955,34.7062982],[33.0953654,34.7062928]]}},{"type":"Feature","properties":{"osm_way":1194500356,"ref":"A6"},"geometry":{"type":"LineString","coordinates":[[32.9418102,34.6904701],[32.9421989,34.6906019],[32.942742,34.6908753],[32.9431906,34.6911172],[32.943408,34.6912665],[32.9441208,34.6917562],[32.9451626,34.6926499]]}},{"type":"Feature","properties":{"osm_way":1194500357,"ref":"A6"},"geometry":{"type":"LineString","coordinates":[[32.9416912,34.6904208],[32.9418102,34.6904701]]}},{"type":"Feature","properties":{"osm_way":1194500358,"ref":"A6"},"geometry":{"type":"LineString","coordinates":[[32.9454226,34.6926759],[32.9446108,34.6920046],[32.9440147,34.6915419],[32.9433015,34.6910575],[32.9427949,34.6907703],[32.9422579,34.6905212],[32.9417672,34.6903532]]}},{"type":"Feature","properties":{"osm_way":1194500359,"ref":"A6"},"geometry":{"type":"LineString","coordinates":[[32.9417672,34.6903532],[32.9416516,34.6903121]]}},{"type":"Feature","properties":{"osm_way":1197024078,"ref":"A1"},"geometry":{"type":"LineString","coordinates":[[33.1467753,34.7180895],[33.1463615,34.7180344],[33.1455674,34.7178993],[33.14466,34.7176854]]}},{"type":"Feature","properties":{"osm_way":1197024079,"ref":"A1"},"geometry":{"type":"LineString","coordinates":[[33.1443796,34.7176136],[33.1442515,34.7175799]]}},{"type":"Feature","properties":{"osm_way":1197024080,"ref":"A1"},"geometry":{"type":"LineString","coordinates":[[33.1446155,34.7177874],[33.1455215,34.7180017],[33.1463359,34.7181394],[33.146754,34.7181962]]}},{"type":"Feature","properties":{"osm_way":1197024081,"ref":"A1"},"geometry":{"type":"LineString","coordinates":[[33.1441792,34.7176731],[33.144307,34.7177073]]}},{"type":"Feature","properties":{"osm_way":1198064387,"ref":"A6"},"geometry":{"type":"LineString","coordinates":[[32.9372573,34.6899677],[32.9384813,34.6899296],[32.9393795,34.6899456],[32.9400181,34.6900155],[32.9404103,34.6900838],[32.9405969,34.6901163],[32.9411396,34.6902269],[32.9416912,34.6904208]]}},{"type":"Feature","properties":{"osm_way":1198064388,"ref":"A6"},"geometry":{"type":"LineString","coordinates":[[32.9371311,34.6899715],[32.9372573,34.6899677]]}},{"type":"Feature","properties":{"osm_way":1198064389,"ref":"A6"},"geometry":{"type":"LineString","coordinates":[[32.9416516,34.6903121],[32.9411826,34.6901618],[32.9406313,34.6900362],[32.9400164,34.6899231],[32.939387,34.6898613],[32.9384711,34.6898227],[32.9372554,34.6898604]]}},{"type":"Feature","properties":{"osm_way":1198064390,"ref":"A6"},"geometry":{"type":"LineString","coordinates":[[32.9372554,34.6898604],[32.9371291,34.6898594]]}},{"type":"Feature","properties":{"osm_way":1198078875,"ref":"A6"},"geometry":{"type":"LineString","coordinates":[[32.9371291,34.6898594],[32.9335344,34.6899744]]}},{"type":"Feature","properties":{"osm_way":1198078876,"ref":"A6"},"geometry":{"type":"LineString","coordinates":[[32.933547,34.6900805],[32.9371311,34.6899715]]}},{"type":"Feature","properties":{"osm_way":1199764393,"ref":"A1"},"geometry":{"type":"LineString","coordinates":[[33.144307,34.7177073],[33.1445409,34.7177697]]}},{"type":"Feature","properties":{"osm_way":1199764394,"ref":"A1"},"geometry":{"type":"LineString","coordinates":[[33.1445409,34.7177697],[33.1446155,34.7177874]]}},{"type":"Feature","properties":{"osm_way":1199764395,"ref":"A1"},"geometry":{"type":"LineString","coordinates":[[33.1445846,34.7176676],[33.1443796,34.7176136]]}},{"type":"Feature","properties":{"osm_way":1199764396,"ref":"A1"},"geometry":{"type":"LineString","coordinates":[[33.14466,34.7176854],[33.1445846,34.7176676]]}},{"type":"Feature","properties":{"osm_way":1200749269,"ref":"A6"},"geometry":{"type":"LineString","coordinates":[[32.9453907,34.6928291],[32.9455004,34.6929166]]}},{"type":"Feature","properties":{"osm_way":1200749270,"ref":"A6"},"geometry":{"type":"LineString","coordinates":[[32.9453122,34.6927647],[32.9453907,34.6928291]]}},{"type":"Feature","properties":{"osm_way":1200749271,"ref":"A6"},"geometry":{"type":"LineString","coordinates":[[32.9456046,34.6928225],[32.9455021,34.6927395]]}},{"type":"Feature","properties":{"osm_way":1200749985,"ref":"A6"},"geometry":{"type":"LineString","coordinates":[[32.9160484,34.6871254],[32.9161667,34.6871668]]}},{"type":"Feature","properties":{"osm_way":1200749986,"ref":"A6"},"geometry":{"type":"LineString","coordinates":[[32.9162281,34.6870423],[32.91611,34.6870004]]}},{"type":"Feature","properties":{"osm_way":1202753821,"ref":"A6"},"geometry":{"type":"LineString","coordinates":[[32.954239,34.6968273],[32.9546594,34.6969055],[32.9555846,34.6970167],[32.9568287,34.6971189],[32.9576856,34.6971511],[32.9586365,34.697142],[32.9595005,34.6970969],[32.9603482,34.6970222],[32.9610733,34.6969263],[32.961901,34.6967946],[32.9626788,34.6966218],[32.9634342,34.6964213],[32.9642128,34.6962012],[32.9650431,34.6959263],[32.96622,34.6954989]]}},{"type":"Feature","properties":{"osm_way":1202753822,"ref":"A6"},"geometry":{"type":"LineString","coordinates":[[32.9661645,34.6953947],[32.9649988,34.6958195],[32.9641799,34.6960884],[32.9634096,34.696302],[32.9626574,34.6965028],[32.9618391,34.696681],[32.9610414,34.6968136],[32.9603193,34.6969071],[32.9594908,34.6969847],[32.9586227,34.6970302],[32.9576653,34.6970329],[32.9568154,34.6970142],[32.9556007,34.6969231],[32.9546658,34.6968063],[32.9542573,34.6967322]]}},{"type":"Feature","properties":{"osm_way":1202753823,"ref":"A6"},"geometry":{"type":"LineString","coordinates":[[32.9662738,34.6953528],[32.9661645,34.6953947]]}},{"type":"Feature","properties":{"osm_way":1202753824,"ref":"A6"},"geometry":{"type":"LineString","coordinates":[[32.96622,34.6954989],[32.9663298,34.6954579]]}},{"type":"Feature","properties":{"osm_way":1212476824,"ref":"A6"},"geometry":{"type":"LineString","coordinates":[[32.9902534,34.687577],[32.9903725,34.6875604],[32.9910989,34.6874595],[32.9921211,34.6873503],[32.9936646,34.6872311],[32.9943038,34.6872079],[32.995009,34.6872033],[32.9959741,34.6872006],[32.9970267,34.6872458],[32.9980036,34.6873158]]}},{"type":"Feature","properties":{"osm_way":1212476825,"ref":"A6"},"geometry":{"type":"LineString","coordinates":[[32.9900617,34.6876033],[32.9902534,34.687577]]}},{"type":"Feature","properties":{"osm_way":1212476826,"ref":"A6"},"geometry":{"type":"LineString","coordinates":[[32.9950758,34.687071],[32.9935705,34.6871342],[32.99218,34.6872386],[32.9911543,34.6873511],[32.9905309,34.6874335],[32.9903156,34.6874611]]}},{"type":"Feature","properties":{"osm_way":1212476827,"ref":"A6"},"geometry":{"type":"LineString","coordinates":[[32.9903156,34.6874611],[32.9901257,34.6874853]]}},{"type":"Feature","properties":{"osm_way":1212476828,"ref":"A6"},"geometry":{"type":"LineString","coordinates":[[32.9901032,34.6874885],[32.9899284,34.6875113]]}},{"type":"Feature","properties":{"osm_way":1212476829,"ref":"A6"},"geometry":{"type":"LineString","coordinates":[[32.9901257,34.6874853],[32.9901032,34.6874885]]}},{"type":"Feature","properties":{"osm_way":1212476830,"ref":"A6"},"geometry":{"type":"LineString","coordinates":[[32.9898618,34.687632],[32.9900391,34.6876064]]}},{"type":"Feature","properties":{"osm_way":1212476831,"ref":"A6"},"geometry":{"type":"LineString","coordinates":[[32.9900391,34.6876064],[32.9900617,34.6876033]]}},{"type":"Feature","properties":{"osm_way":1212477607,"ref":"A6"},"geometry":{"type":"LineString","coordinates":[[32.9989455,34.6872796],[32.9985333,34.687236],[32.9981056,34.6871991]]}},{"type":"Feature","properties":{"osm_way":1212477608,"ref":"A6"},"geometry":{"type":"LineString","coordinates":[[32.9981476,34.6873236],[32.9985612,34.6873432],[32.9989251,34.6873802]]}},{"type":"Feature","properties":{"osm_way":1212477609,"ref":"A6"},"geometry":{"type":"LineString","coordinates":[[32.9980036,34.6873158],[32.9981476,34.6873236]]}},{"type":"Feature","properties":{"osm_way":1212477610,"ref":"A6"},"geometry":{"type":"LineString","coordinates":[[32.9981056,34.6871991],[32.9979618,34.6871917]]}},{"type":"Feature","properties":{"osm_way":1212520096,"ref":"A1","highway":"motorway"},"geometry":{"type":"LineString","coordinates":[[33.0961476,34.7061455],[33.0953484,34.706171]]}},{"type":"Feature","properties":{"osm_way":1212565715,"ref":"A6"},"geometry":{"type":"LineString","coordinates":[[33.0025018,34.6878142],[33.0014059,34.6876216]]}},{"type":"Feature","properties":{"osm_way":1212565716,"ref":"A6"},"geometry":{"type":"LineString","coordinates":[[32.9979618,34.6871917],[32.997006,34.6871181],[32.9959738,34.687078],[32.9953696,34.6870733],[32.9950758,34.687071]]}},{"type":"Feature","properties":{"osm_way":1244038738,"ref":"A6"},"geometry":{"type":"LineString","coordinates":[[32.8908584,34.6810921],[32.8923243,34.6810899],[32.8926724,34.681103]]}},{"type":"Feature","properties":{"osm_way":1244038739,"ref":"A6"},"geometry":{"type":"LineString","coordinates":[[32.8926724,34.681103],[32.892721,34.6811049],[32.8927924,34.6811076]]}},{"type":"Feature","properties":{"osm_way":1244038740,"ref":"A6"},"geometry":{"type":"LineString","coordinates":[[32.8926819,34.6809953],[32.8923293,34.6809775],[32.8908542,34.680986]]}},{"type":"Feature","properties":{"osm_way":1244038741,"ref":"A6"},"geometry":{"type":"LineString","coordinates":[[32.8928019,34.6810014],[32.8926819,34.6809953]]}},{"type":"Feature","properties":{"osm_way":1244039149,"ref":"A6"},"geometry":{"type":"LineString","coordinates":[[32.9284216,34.6902337],[32.9302256,34.6901831],[32.9317011,34.6901378],[32.933547,34.6900805]]}},{"type":"Feature","properties":{"osm_way":1244039150,"ref":"A6"},"geometry":{"type":"LineString","coordinates":[[32.9283036,34.6902357],[32.9284216,34.6902337]]}},{"type":"Feature","properties":{"osm_way":1244039151,"ref":"A6"},"geometry":{"type":"LineString","coordinates":[[32.9282984,34.6901152],[32.9262954,34.6901664],[32.9256143,34.6901432],[32.9249426,34.690066],[32.9243919,34.6899805],[32.9243016,34.6899556]]}},{"type":"Feature","properties":{"osm_way":1244039152,"ref":"A6"},"geometry":{"type":"LineString","coordinates":[[32.9284164,34.6901132],[32.9282984,34.6901152]]}},{"type":"Feature","properties":{"osm_way":1382324166,"ref":"A6"},"geometry":{"type":"LineString","coordinates":[[32.8884284,34.6812638],[32.8889229,34.681203],[32.8898895,34.6811334],[32.8908584,34.6810921]]}},{"type":"Feature","properties":{"osm_way":1382324167,"ref":"A6"},"geometry":{"type":"LineString","coordinates":[[32.8883163,34.6812776],[32.8884284,34.6812638]]}},{"type":"Feature","properties":{"osm_way":1382324168,"ref":"A6"},"geometry":{"type":"LineString","coordinates":[[32.8907566,34.6809859],[32.8888913,34.6810985],[32.8884139,34.6811563]]}},{"type":"Feature","properties":{"osm_way":1382324169,"ref":"A6"},"geometry":{"type":"LineString","coordinates":[[32.8884139,34.6811563],[32.888296,34.6811706]]}},{"type":"Feature","properties":{"osm_way":1382326428,"ref":"A6"},"geometry":{"type":"LineString","coordinates":[[32.888296,34.6811706],[32.887838,34.6812261],[32.8867763,34.6813891]]}},{"type":"Feature","properties":{"osm_way":1453112646,"ref":"A6"},"geometry":{"type":"LineString","coordinates":[[32.9532523,34.6966125],[32.9536153,34.696698]]}},{"type":"Feature","properties":{"osm_way":1453112647,"ref":"A6"},"geometry":{"type":"LineString","coordinates":[[32.9536153,34.696698],[32.9537128,34.6967216]]}},{"type":"Feature","properties":{"osm_way":1453112650,"ref":"A6"},"geometry":{"type":"LineString","coordinates":[[32.9536481,34.6966121],[32.9533066,34.6965336]]}},{"type":"Feature","properties":{"osm_way":1453112651,"ref":"A6"},"geometry":{"type":"LineString","coordinates":[[32.9537458,34.6966352],[32.9536481,34.6966121]]}},{"type":"Feature","properties":{"osm_way":1512065146,"ref":"A1"},"geometry":{"type":"LineString","coordinates":[[33.176268,34.7176459],[33.1706029,34.7163318],[33.1696513,34.7161445],[33.1689147,34.716029],[33.1679227,34.7158995],[33.1671286,34.7158278],[33.1661685,34.7157648],[33.1650504,34.7157439],[33.1648555,34.7157441]]}},{"type":"Feature","properties":{"osm_way":1512065147,"ref":"A1"},"geometry":{"type":"LineString","coordinates":[[33.1763944,34.7176747],[33.176268,34.7176459]]}},{"type":"Feature","properties":{"osm_way":1512065148,"ref":"A1"},"geometry":{"type":"LineString","coordinates":[[33.1636408,34.7158785],[33.1637045,34.7158742],[33.1643289,34.7158695],[33.1650504,34.7158558],[33.1661636,34.7158674],[33.1671131,34.7159225],[33.167915,34.7160041],[33.1688914,34.7161297],[33.1696263,34.7162554],[33.1705624,34.7164384],[33.1762411,34.7177409]]}},{"type":"Feature","properties":{"osm_way":1512065149,"ref":"A1"},"geometry":{"type":"LineString","coordinates":[[33.1762411,34.7177409],[33.1763675,34.7177696]]}},{"type":"Feature","properties":{"osm_way":1562472632,"ref":"A6"},"geometry":{"type":"LineString","coordinates":[[33.0034648,34.6880125],[33.0025018,34.6878142]]}},{"type":"Feature","properties":{"osm_way":1562472633,"ref":"A6"},"geometry":{"type":"LineString","coordinates":[[33.0013551,34.6877065],[33.0020443,34.6878212],[33.0034352,34.6881004]]}},{"type":"Feature","properties":{"osm_way":24080444,"ref":"A1","highway":"trunk"},"geometry":{"type":"LineString","coordinates":[[33.0482075,34.7053726],[33.0491227,34.7054207],[33.050377,34.7055226],[33.0520894,34.7057265],[33.053962,34.7060093]]}},{"type":"Feature","properties":{"osm_way":24080485,"ref":"A1","highway":"trunk"},"geometry":{"type":"LineString","coordinates":[[33.048095,34.7052519],[33.0470201,34.7052037],[33.0459557,34.7051913],[33.0441087,34.7052203]]}},{"type":"Feature","properties":{"osm_way":45984416,"ref":"A1","highway":"trunk"},"geometry":{"type":"LineString","coordinates":[[33.0406278,34.7052814],[33.039909,34.7052858],[33.0391855,34.7052903],[33.036933,34.7052384],[33.0355002,34.705142],[33.0328788,34.7049656]]}},{"type":"Feature","properties":{"osm_way":45984417,"ref":"A1","highway":"trunk"},"geometry":{"type":"LineString","coordinates":[[33.0441084,34.7053328],[33.0459547,34.7053132],[33.0470249,34.7053219],[33.0482075,34.7053726]]}},{"type":"Feature","properties":{"osm_way":45984419,"ref":"A1","highway":"trunk"},"geometry":{"type":"LineString","coordinates":[[33.0534005,34.7057713],[33.0521037,34.7056289],[33.0503904,34.7054194],[33.0491281,34.7053104],[33.048095,34.7052519]]}},{"type":"Feature","properties":{"osm_way":45984422,"ref":"A1","highway":"trunk"},"geometry":{"type":"LineString","coordinates":[[33.0337235,34.7051278],[33.0369259,34.7053427]]}},{"type":"Feature","properties":{"osm_way":181645235,"ref":"A1","highway":"trunk"},"geometry":{"type":"LineString","coordinates":[[33.0297082,34.7047799],[33.0279728,34.7046737],[33.0271394,34.7045853],[33.0264272,34.7044615],[33.0256517,34.7042573],[33.024903,34.7040272],[33.0238883,34.7036073],[33.0229958,34.7031181],[33.0223424,34.702676],[33.0218034,34.7022651],[33.0213319,34.7018371]]}},{"type":"Feature","properties":{"osm_way":267218748,"ref":"A1","highway":"trunk"},"geometry":{"type":"LineString","coordinates":[[33.0215462,34.7021931],[33.0222725,34.7027447],[33.0229321,34.7031959],[33.0238296,34.7036816],[33.0248478,34.7041112],[33.0256056,34.7043546],[33.0271078,34.7046741],[33.0279615,34.7047644],[33.0296994,34.704874]]}},{"type":"Feature","properties":{"osm_way":267223599,"ref":"A1","highway":"trunk"},"geometry":{"type":"LineString","coordinates":[[33.0376814,34.7053615],[33.0388457,34.7053904],[33.0391656,34.7053983],[33.0406352,34.7053976]]}},{"type":"Feature","properties":{"osm_way":527854618,"ref":"A1","highway":"trunk"},"geometry":{"type":"LineString","coordinates":[[33.0328788,34.7049656],[33.0297082,34.7047799]]}},{"type":"Feature","properties":{"osm_way":527854619,"ref":"A1","highway":"trunk"},"geometry":{"type":"LineString","coordinates":[[33.0441087,34.7052203],[33.0425961,34.7052441],[33.0406278,34.7052814]]}},{"type":"Feature","properties":{"osm_way":527854620,"ref":"A1","highway":"trunk"},"geometry":{"type":"LineString","coordinates":[[33.0406352,34.7053976],[33.0425999,34.7053489],[33.0441084,34.7053328]]}},{"type":"Feature","properties":{"osm_way":527854621,"ref":"A1","highway":"trunk"},"geometry":{"type":"LineString","coordinates":[[33.0296994,34.704874],[33.0337235,34.7051278]]}},{"type":"Feature","properties":{"osm_way":1550125208,"ref":"A1","highway":"trunk"},"geometry":{"type":"LineString","coordinates":[[33.0369259,34.7053427],[33.0375768,34.7053589]]}},{"type":"Feature","properties":{"osm_way":1550125209,"ref":"A1","highway":"trunk"},"geometry":{"type":"LineString","coordinates":[[33.0375768,34.7053589],[33.0376814,34.7053615]]}},{"type":"Feature","properties":{"osm_way":181645234,"ref":"A1","highway":"trunk"},"geometry":{"type":"LineString","coordinates":[[33.017653,34.6982585],[33.0199487,34.7005951],[33.0210845,34.7017569],[33.0215462,34.7021931]]}},{"type":"Feature","properties":{"osm_way":267218438,"ref":"A1","highway":"trunk"},"geometry":{"type":"LineString","coordinates":[[33.0213319,34.7018371],[33.0211172,34.7016483],[33.0199981,34.7005115],[33.0175999,34.6980313]]}},{"type":"Feature","properties":{"osm_way":45984415,"ref":"A1","highway":"trunk"},"geometry":{"type":"LineString","coordinates":[[33.0660204,34.7079489],[33.0688794,34.7084106]]}},{"type":"Feature","properties":{"osm_way":45984418,"ref":"A1","highway":"trunk"},"geometry":{"type":"LineString","coordinates":[[33.0561144,34.7063702],[33.0596489,34.7069065],[33.0602452,34.7070044]]}},{"type":"Feature","properties":{"osm_way":45984421,"ref":"A1","highway":"trunk"},"geometry":{"type":"LineString","coordinates":[[33.068398,34.7082172],[33.0644672,34.7075879]]}},{"type":"Feature","properties":{"osm_way":544798685,"ref":"A1","highway":"trunk"},"geometry":{"type":"LineString","coordinates":[[33.053962,34.7060093],[33.0561144,34.7063702]]}},{"type":"Feature","properties":{"osm_way":1194864646,"ref":"A1","highway":"trunk"},"geometry":{"type":"LineString","coordinates":[[33.060266,34.7069175],[33.0561477,34.7062633]]}},{"type":"Feature","properties":{"osm_way":1194864647,"ref":"A1","highway":"trunk"},"geometry":{"type":"LineString","coordinates":[[33.0613304,34.7070857],[33.0611508,34.7070603]]}},{"type":"Feature","properties":{"osm_way":1194864648,"ref":"A1","highway":"trunk"},"geometry":{"type":"LineString","coordinates":[[33.0613102,34.7071724],[33.0660204,34.7079489]]}},{"type":"Feature","properties":{"osm_way":1194864649,"ref":"A1","highway":"trunk"},"geometry":{"type":"LineString","coordinates":[[33.0611279,34.7071439],[33.0613102,34.7071724]]}},{"type":"Feature","properties":{"osm_way":1194864650,"ref":"A1","highway":"trunk"},"geometry":{"type":"LineString","coordinates":[[33.0611508,34.7070603],[33.0604484,34.7069426]]}},{"type":"Feature","properties":{"osm_way":1194864651,"ref":"A1","highway":"trunk"},"geometry":{"type":"LineString","coordinates":[[33.0604303,34.7070389],[33.0611279,34.7071439]]}},{"type":"Feature","properties":{"osm_way":1194864652,"ref":"A1","highway":"trunk"},"geometry":{"type":"LineString","coordinates":[[33.0602452,34.7070044],[33.0604303,34.7070389]]}},{"type":"Feature","properties":{"osm_way":1194864653,"ref":"A1","highway":"trunk"},"geometry":{"type":"LineString","coordinates":[[33.0604484,34.7069426],[33.060266,34.7069175]]}},{"type":"Feature","properties":{"osm_way":1197024628,"ref":"A1","highway":"trunk"},"geometry":{"type":"LineString","coordinates":[[33.0688794,34.7084106],[33.0742871,34.7092838]]}},{"type":"Feature","properties":{"osm_way":1197024630,"ref":"A1","highway":"trunk"},"geometry":{"type":"LineString","coordinates":[[33.0743225,34.7091702],[33.068398,34.7082172]]}},{"type":"Feature","properties":{"osm_way":1212520100,"ref":"A1","highway":"trunk"},"geometry":{"type":"LineString","coordinates":[[33.0644672,34.7075879],[33.0613304,34.7070857]]}},{"type":"Feature","properties":{"osm_way":1212520101,"ref":"A1","highway":"trunk"},"geometry":{"type":"LineString","coordinates":[[33.0561477,34.7062633],[33.0544987,34.7059584],[33.0534005,34.7057713]]}},{"type":"Feature","properties":{"osm_way":24079857,"ref":"A1","highway":"trunk"},"geometry":{"type":"LineString","coordinates":[[33.0787177,34.7098394],[33.0781603,34.7097868],[33.0775685,34.7096923],[33.0744518,34.709191]]}},{"type":"Feature","properties":{"osm_way":45984413,"ref":"A1","highway":"trunk"},"geometry":{"type":"LineString","coordinates":[[33.088087,34.7076388],[33.0849378,34.7086139]]}},{"type":"Feature","properties":{"osm_way":86939541,"ref":"A1","highway":"trunk"},"geometry":{"type":"LineString","coordinates":[[33.0849753,34.708699],[33.0881367,34.7077439]]}},{"type":"Feature","properties":{"osm_way":150880850,"ref":"A1","highway":"trunk"},"geometry":{"type":"LineString","coordinates":[[33.0881367,34.7077439],[33.0893476,34.707379]]}},{"type":"Feature","properties":{"osm_way":300603214,"ref":"A1","highway":"trunk"},"geometry":{"type":"LineString","coordinates":[[33.0893476,34.707379],[33.0901278,34.7071507]]}},{"type":"Feature","properties":{"osm_way":300603215,"ref":"A1","highway":"trunk"},"geometry":{"type":"LineString","coordinates":[[33.0901278,34.7071507],[33.091065,34.706907],[33.0917606,34.7067562],[33.0927028,34.7065835],[33.0935017,34.7064722],[33.0942525,34.706383],[33.0948208,34.7063238],[33.094922,34.7063132]]}},{"type":"Feature","properties":{"osm_way":300603216,"ref":"A1","highway":"trunk"},"geometry":{"type":"LineString","coordinates":[[33.0893995,34.7072432],[33.0888405,34.7074146],[33.088087,34.7076388]]}},{"type":"Feature","properties":{"osm_way":300603217,"ref":"A1","highway":"trunk"},"geometry":{"type":"LineString","coordinates":[[33.0901781,34.7070267],[33.0893995,34.7072432]]}},{"type":"Feature","properties":{"osm_way":544798686,"ref":"A1","highway":"trunk"},"geometry":{"type":"LineString","coordinates":[[33.0744164,34.7093047],[33.0775352,34.7098083],[33.0781893,34.7099042]]}},{"type":"Feature","properties":{"osm_way":576209339,"ref":"A1","highway":"trunk"},"geometry":{"type":"LineString","coordinates":[[33.092023,34.706611],[33.0910449,34.7068184],[33.0901781,34.7070267]]}},{"type":"Feature","properties":{"osm_way":1061288835,"ref":"A1","highway":"trunk"},"geometry":{"type":"LineString","coordinates":[[33.0943464,34.7062501],[33.0929372,34.7064461],[33.092023,34.706611]]}},{"type":"Feature","properties":{"osm_way":1194283596,"ref":"A1","highway":"trunk"},"geometry":{"type":"LineString","coordinates":[[33.0951192,34.7061761],[33.0949104,34.7061878]]}},{"type":"Feature","properties":{"osm_way":1194283598,"ref":"A1","highway":"trunk"},"geometry":{"type":"LineString","coordinates":[[33.094922,34.7063132],[33.0950784,34.7063035],[33.0951307,34.7063003]]}},{"type":"Feature","properties":{"osm_way":1197024629,"ref":"A1","highway":"trunk"},"geometry":{"type":"LineString","coordinates":[[33.0742871,34.7092838],[33.0744164,34.7093047]]}},{"type":"Feature","properties":{"osm_way":1197024631,"ref":"A1","highway":"trunk"},"geometry":{"type":"LineString","coordinates":[[33.0744518,34.709191],[33.0743225,34.7091702]]}},{"type":"Feature","properties":{"osm_way":1212518461,"ref":"A1","highway":"trunk"},"geometry":{"type":"LineString","coordinates":[[33.0809683,34.7098594],[33.0849753,34.708699]]}},{"type":"Feature","properties":{"osm_way":1212518462,"ref":"A1","highway":"trunk"},"geometry":{"type":"LineString","coordinates":[[33.0781893,34.7099042],[33.0787356,34.7099529],[33.0793364,34.7099812],[33.0801095,34.7099621],[33.080665,34.7099065],[33.0809683,34.7098594]]}},{"type":"Feature","properties":{"osm_way":1212520097,"ref":"A1","highway":"trunk"},"geometry":{"type":"LineString","coordinates":[[33.0949104,34.7061878],[33.0943464,34.7062501]]}},{"type":"Feature","properties":{"osm_way":1212520098,"ref":"A1","highway":"trunk"},"geometry":{"type":"LineString","coordinates":[[33.0849378,34.7086139],[33.081723,34.7095715],[33.0810412,34.7097142]]}},{"type":"Feature","properties":{"osm_way":1212520099,"ref":"A1","highway":"trunk"},"geometry":{"type":"LineString","coordinates":[[33.0810412,34.7097142],[33.0806259,34.7097797],[33.0800811,34.7098302],[33.0793308,34.7098526],[33.0787177,34.7098394]]}}],"api_source":"https://api.openstreetmap.org/api/0.6/map"}